NORAD_CAT_ID,OBJECT_NAME,OBJECT_TYPE,EPOCH,MEAN_MOTION,ECCENTRICITY,INCLINATION,RA_OF_ASC_NODE,ARG_OF_PERICENTER,MEAN_ANOMALY,BSTAR,MEAN_MOTION_DOT,MEAN_MOTION_DDOT,TLE_LINE0,TLE_LINE1,TLE_LINE2,SEMIMAJOR_AXIS,PERIOD,APOGEE,PERIGEE,DECAYED
53161.0,STARLINK-4055,PAYLOAD,2023-08-28 13:58:41,15.08842175,0.0001006,53.2174,352.6033,78.0882,282.0223,2.0076e-05,3.2e-07,0.0,0 STARLINK-4055,1 53161U 22083AF  23240.58242808  .00000032  00000-0  20076-4 0  9993,2 53161  53.2174 352.6033 0001006  78.0882 282.0223 15.08842175 61852,6917.874,95.437,540.435,539.043,0.0
53161.0,STARLINK-4055,PAYLOAD,2023-08-29 07:27:56,15.08839749,0.0001136,53.2174,349.3324,75.274,284.8378,3.2659e-05,2.32e-06,0.0,0 STARLINK-4055,1 53161U 22083AF  23241.31106886  .00000232  00000-0  32659-4 0  9992,2 53161  53.2174 349.3324 0001136  75.2740 284.8378 15.08839749 62590,6917.881,95.438,540.532,538.96,0.0
53161.0,STARLINK-4055,PAYLOAD,2023-08-29 13:49:28,15.08843346,0.0001178,53.2175,348.142,79.0011,281.1114,2.9644e-05,1.84e-06,0.0,0 STARLINK-4055,1 53161U 22083AF  23241.57602657  .00000184  00000-0  29644-4 0  9993,2 53161  53.2175 348.1420 0001178  79.0011 281.1114 15.08843346 62006,6917.87,95.437,540.55,538.92,0.0
53161.0,STARLINK-4055,PAYLOAD,2023-08-30 13:40:15,15.08838862,0.0001187,53.2177,343.6803,79.8308,280.2818,7.4348e-05,8.96e-06,0.0,0 STARLINK-4055,1 53161U 22083AF  23242.56962804  .00000896  00000-0  74348-4 0  9997,2 53161  53.2177 343.6803 0001187  79.8308 280.2818 15.08838862 62783,6917.884,95.438,540.57,538.928,0.0
53161.0,STARLINK-4055,PAYLOAD,2023-08-31 10:20:16,15.08836182,0.0001181,53.2176,339.8155,81.9211,278.1915,3.11e-05,2.07e-06,0.0,0 STARLINK-4055,1 53161U 22083AF  23243.43075212  .00000207  00000-0  31100-4 0  9997,2 53161  53.2176 339.8155 0001181  81.9211 278.1915 15.08836182 62912,6917.892,95.438,540.574,538.94,0.0
53161.0,STARLINK-4055,PAYLOAD,2023-09-01 13:21:49,15.08851064,0.0001187,53.2185,334.7594,67.9825,292.1293,-5.3243e-05,-1.135e-05,0.0,0 STARLINK-4055,1 53161U 22083AF  23244.55682710 -.00001135  00000-0 -53243-4 0  9993,2 53161  53.2185 334.7594 0001187  67.9825 292.1293 15.08851064 62454,6917.847,95.437,540.533,538.89,0.0
53161.0,STARLINK-4055,PAYLOAD,2023-09-01 14:57:12,15.08846791,0.0001247,53.2187,334.4616,71.1799,288.9328,3.3983e-05,2.53e-06,0.0,0 STARLINK-4055,1 53161U 22083AF  23244.62306697  .00000253  00000-0  33983-4 0  9995,2 53161  53.2187 334.4616 0001247  71.1799 288.9328 15.08846791 63096,6917.86,95.437,540.587,538.862,0.0
53161.0,STARLINK-4055,PAYLOAD,2023-09-02 13:12:37,15.08838936,0.0001329,53.2191,330.2982,72.0234,288.0903,5.4163e-05,5.74e-06,0.0,0 STARLINK-4055,1 53161U 22083AF  23245.55043196  .00000574  00000-0  54163-4 0  9999,2 53161  53.2191 330.2982 0001329  72.0234 288.0903 15.08838936 62604,6917.884,95.438,540.668,538.829,0.0
53161.0,STARLINK-4055,PAYLOAD,2023-09-02 22:44:55,15.08847472,0.0001382,53.2194,328.5156,80.9698,279.145,7.1098e-05,8.44e-06,0.0,0 STARLINK-4055,1 53161U 22083AF  23245.94786630  .00000844  00000-0  71098-4 0  9995,2 53161  53.2194 328.5156 0001382  80.9698 279.1450 15.08847472 63290,6917.858,95.437,540.679,538.767,0.0
53161.0,STARLINK-4055,PAYLOAD,2023-09-03 05:06:28,15.0885282,0.0001278,53.2192,327.327,82.572,277.5417,-1.5909e-05,-5.41e-06,0.0,0 STARLINK-4055,1 53161U 22083AF  23246.21282667 -.00000541  00000-0 -15909-4 0  9992,2 53161  53.2192 327.3270 0001278  82.5720 277.5417 15.08852820 62703,6917.841,95.437,540.59,538.822,0.0
53161.0,STARLINK-4055,PAYLOAD,2023-09-04 00:11:05,15.08842826,0.0001535,53.218,323.7571,82.5202,277.5965,1.2102e-05,-9.5e-07,0.0,0 STARLINK-4055,1 53161U 22083AF  23247.00770733 -.00000095  00000-0  12102-4 0  9991,2 53161  53.2180 323.7571 0001535  82.5202 277.5965 15.08842826 63451,6917.872,95.437,540.799,538.675,0.0
53161.0,STARLINK-4055,PAYLOAD,2023-09-04 11:18:49,15.0882633,0.0001528,53.2172,321.6772,84.103,276.0136,-8.2857e-05,-1.606e-05,0.0,0 STARLINK-4055,1 53161U 22083AF  23247.47140330 -.00001606  00000-0 -82857-4 0  9990,2 53161  53.2172 321.6772 0001528  84.1030 276.0136 15.08826330 63525,6917.922,95.438,540.844,538.73,0.0
53161.0,STARLINK-4055,PAYLOAD,2023-09-05 14:20:21,15.08856433,0.0001607,53.2169,316.6211,104.2823,255.8347,-0.00012036,-2.204e-05,0.0,0 STARLINK-4055,1 53161U 22083AF  23248.59746554 -.00002204  00000-0 -12036-3 0  9990,2 53161  53.2169 316.6211 0001607 104.2823 255.8347 15.08856433 63699,6917.83,95.437,540.807,538.583,0.0
53161.0,STARLINK-4055,PAYLOAD,2023-09-06 04:38:50,15.088325,0.0001264,53.2168,313.9451,92.9411,267.1725,0.0002284,3.348e-05,0.0,0 STARLINK-4055,1 53161U 22083AF  23249.19363523  .00003348  00000-0  22840-3 0  9990,2 53161  53.2168 313.9451 0001264  92.9411 267.1725 15.08832500 63784,6917.903,95.438,540.643,538.894,0.0
53161.0,STARLINK-4055,PAYLOAD,2023-09-07 09:15:46,15.08839038,0.0001339,53.2169,308.5916,95.8801,264.2343,-7.2264e-06,-4.03e-06,0.0,0 STARLINK-4055,1 53161U 22083AF  23250.38595923 -.00000403  00000-0 -72264-5 0  9992,2 53161  53.2169 308.5916 0001339  95.8801 264.2343 15.08839038 63966,6917.883,95.438,540.675,538.822,0.0
53161.0,STARLINK-4055,PAYLOAD,2023-09-07 12:26:33,15.08839392,0.0001311,53.2167,307.9969,94.9348,265.1794,-9.1298e-06,-4.33e-06,0.0,0 STARLINK-4055,1 53161U 22083AF  23250.51843874 -.00000433  00000-0 -91298-5 0  9999,2 53161  53.2167 307.9969 0001311  94.9348 265.1794 15.08839392 63357,6917.882,95.438,540.654,538.84,0.0
53161.0,STARLINK-4055,PAYLOAD,2023-09-07 14:01:56,15.08839724,0.000131,53.2167,307.6995,95.2222,264.892,-7.8898e-06,-4.13e-06,0.0,0 STARLINK-4055,1 53161U 22083AF  23250.58467833 -.00000413  00000-0 -78898-5 0  9992,2 53161  53.2167 307.6995 0001310  95.2222 264.8920 15.08839724 63364,6917.881,95.438,540.652,538.84,0.0
53161.0,STARLINK-4055,PAYLOAD,2023-09-08 10:41:56,15.08842839,0.0001293,53.2164,303.8334,88.6229,271.4911,6.0125e-05,6.69e-06,0.0,0 STARLINK-4055,1 53161U 22083AF  23251.44579502  .00000669  00000-0  60125-4 0  9999,2 53161  53.2164 303.8334 0001293  88.6229 271.4911 15.08842839 64129,6917.872,95.437,540.631,538.842,0.0
53161.0,STARLINK-4055,PAYLOAD,2023-09-08 20:14:16,15.08826112,0.00016,53.2164,302.0492,81.6566,278.4607,-2.384e-06,-3.26e-06,0.0,0 STARLINK-4055,1 53161U 22083AF  23251.84324798 -.00000326  00000-0 -23840-5 0  9994,2 53161  53.2164 302.0492 0001600  81.6566 278.4607 15.08826112 63555,6917.923,95.438,540.895,538.681,0.0
53161.0,STARLINK-4055,PAYLOAD,2023-09-09 10:32:44,15.08832752,0.0001332,53.2163,299.3728,82.9238,277.1905,4.5918e-05,4.43e-06,0.0,0 STARLINK-4055,1 53161U 22083AF  23252.43940485  .00000443  00000-0  45918-4 0  9994,2 53161  53.2163 299.3728 0001332  82.9238 277.1905 15.08832752 64270,6917.903,95.438,540.689,538.846,0.0
53161.0,STARLINK-4055,PAYLOAD,2023-09-09 12:08:07,15.08836054,0.000135,53.2163,299.0754,84.0588,276.0558,7.5548e-05,9.15e-06,0.0,0 STARLINK-4055,1 53161U 22083AF  23252.50564255  .00000915  00000-0  75548-4 0  9995,2 53161  53.2163 299.0754 0001350  84.0588 276.0558 15.08836054 63659,6917.892,95.438,540.691,538.824,0.0
53161.0,STARLINK-4055,PAYLOAD,2023-09-09 13:43:30,15.08838705,0.0001349,53.2163,298.778,85.4219,274.6927,9.8276e-05,1.276e-05,0.0,0 STARLINK-4055,1 53161U 22083AF  23252.57188056  .00001276  00000-0  98276-4 0  9997,2 53161  53.2163 298.7780 0001349  85.4219 274.6927 15.08838705 64298,6917.884,95.438,540.683,538.816,0.0
53161.0,STARLINK-4055,PAYLOAD,2023-09-10 10:23:31,15.08846814,0.000138,53.2164,294.912,83.3541,276.7608,0.00011154,1.488e-05,0.0,0 STARLINK-4055,1 53161U 22083AF  23253.43299818  .00001488  00000-0  11154-3 0  9996,2 53161  53.2164 294.9120 0001380  83.3541 276.7608 15.08846814 63798,6917.86,95.437,540.679,538.77,0.0
53161.0,STARLINK-4055,PAYLOAD,2023-09-11 02:17:22,15.08841018,0.0001422,53.2165,291.9386,79.1286,280.9866,0.00019235,2.775e-05,0.0,0 STARLINK-4055,1 53161U 22083AF  23254.09540059  .00002775  00000-0  19235-3 0  9993,2 53161  53.2165 291.9386 0001422  79.1286 280.9866 15.08841018 64522,6917.877,95.437,540.726,538.759,0.0
53161.0,STARLINK-4055,PAYLOAD,2023-09-11 10:14:18,15.08840649,0.0001401,53.216,290.4523,85.2923,274.8229,5.9131e-05,6.53e-06,0.0,0 STARLINK-4055,1 53161U 22083AF  23254.42660455  .00000653  00000-0  59131-4 0  9996,2 53161  53.2160 290.4523 0001401  85.2923 274.8229 15.08840649 63946,6917.878,95.438,540.713,538.774,0.0
53161.0,STARLINK-4055,PAYLOAD,2023-09-12 08:29:41,15.08849318,0.0001487,53.2157,286.289,81.9428,278.1733,8.416e-05,1.052e-05,0.0,0 STARLINK-4055,1 53161U 22083AF  23255.35395728  .00001052  00000-0  84160-4 0  9991,2 53161  53.2157 286.2890 0001487  81.9428 278.1733 15.08849318 64714,6917.852,95.437,540.746,538.688,0.0
53161.0,STARLINK-4055,PAYLOAD,2023-09-12 13:15:50,15.08854328,0.00015,53.2161,285.3966,84.6451,275.4712,0.00012504,1.703e-05,0.0,0 STARLINK-4055,1 53161U 22083AF  23255.55267198  .00001703  00000-0  12504-3 0  9997,2 53161  53.2161 285.3966 0001500  84.6451 275.4712 15.08854328 64113,6917.837,95.437,540.739,538.664,0.0
53161.0,STARLINK-4055,PAYLOAD,2023-09-13 08:20:28,15.08846178,0.0001564,53.2156,281.8283,83.6232,276.4938,0.00011258,1.504e-05,0.0,0 STARLINK-4055,1 53161U 22083AF  23256.34755690  .00001504  00000-0  11258-3 0  9998,2 53161  53.2156 281.8283 0001564  83.6232 276.4938 15.08846178 64863,6917.862,95.437,540.808,538.645,0.0
53161.0,STARLINK-4055,PAYLOAD,2023-09-13 11:31:14,15.08849155,0.0001537,53.2159,281.233,85.2717,274.845,0.00013132,1.803e-05,0.0,0 STARLINK-4055,1 53161U 22083AF  23256.48003401  .00001803  00000-0  13132-3 0  9994,2 53161  53.2159 281.2330 0001537  85.2717 274.8450 15.08849155 64251,6917.852,95.437,540.781,538.654,0.0
53161.0,STARLINK-4055,PAYLOAD,2023-09-13 13:06:37,15.08853991,0.0001505,53.2163,280.9358,87.9123,272.2042,0.0001741,2.485e-05,0.0,0 STARLINK-4055,1 53161U 22083AF  23256.54626991  .00002485  00000-0  17410-3 0  9996,2 53161  53.2163 280.9358 0001505  87.9123 272.2042 15.08853991 64899,6917.838,95.437,540.744,538.661,0.0
